<?xml version="1.0" encoding="UTF-8"?>
<ndm xmlns:xsi="http://www.w3.org/2001/XMLSchema-instance" xsi:noNamespaceSchemaLocation="https://sanaregistry.org/r/ndmxml_unqualified/ndmxml-2.0.0-master-2.0.xsd">
<omm id="CCSDS_OMM_VERS" version="2.0">
<header><CREATION_DATE/><ORIGINATOR/></header><body><segment><metadata><OBJECT_NAME>GLOBALSTAR M084</OBJECT_NAME><OBJECT_ID>2011-080A</OBJECT_ID><CENTER_NAME>EARTH</CENTER_NAME><REF_FRAME>TEME</REF_FRAME><TIME_SYSTEM>UTC</TIME_SYSTEM><MEAN_ELEMENT_THEORY>SGP4</MEAN_ELEMENT_THEORY></metadata><data><meanElements><EPOCH>2024-07-17T14:27:22.811904</EPOCH><MEAN_MOTION>12.62264301</MEAN_MOTION><ECCENTRICITY>.0000976</ECCENTRICITY><INCLINATION>52.0029</INCLINATION><RA_OF_ASC_NODE>347.0727</RA_OF_ASC_NODE><ARG_OF_PERICENTER>85.9917</ARG_OF_PERICENTER><MEAN_ANOMALY>354.3511</MEAN_ANOMALY></meanElements><tleParameters><EPHEMERIS_TYPE>0</EPHEMERIS_TYPE><CLASSIFICATION_TYPE>U</CLASSIFICATION_TYPE><NORAD_CAT_ID>38040</NORAD_CAT_ID><ELEMENT_SET_NO>999</ELEMENT_SET_NO><REV_AT_EPOCH>58069</REV_AT_EPOCH><BSTAR>.82557E-4</BSTAR><MEAN_MOTION_DOT>-.89E-6</MEAN_MOTION_DOT><MEAN_MOTION_DDOT>0</MEAN_MOTION_DDOT></tleParameters></data></segment></body></omm>
<omm id="CCSDS_OMM_VERS" version="2.0">
<header><CREATION_DATE/><ORIGINATOR/></header><body><segment><metadata><OBJECT_NAME>GLOBALSTAR M080</OBJECT_NAME><OBJECT_ID>2011-080B</OBJECT_ID><CENTER_NAME>EARTH</CENTER_NAME><REF_FRAME>TEME</REF_FRAME><TIME_SYSTEM>UTC</TIME_SYSTEM><MEAN_ELEMENT_THEORY>SGP4</MEAN_ELEMENT_THEORY></metadata><data><meanElements><EPOCH>2024-07-18T12:21:09.081216</EPOCH><MEAN_MOTION>12.62262886</MEAN_MOTION><ECCENTRICITY>.000086</ECCENTRICITY><INCLINATION>52.0081</INCLINATION><RA_OF_ASC_NODE>345.7842</RA_OF_ASC_NODE><ARG_OF_PERICENTER>72.4794</ARG_OF_PERICENTER><MEAN_ANOMALY>316.0115</MEAN_ANOMALY></meanElements><tleParameters><EPHEMERIS_TYPE>0</EPHEMERIS_TYPE><CLASSIFICATION_TYPE>U</CLASSIFICATION_TYPE><NORAD_CAT_ID>38041</NORAD_CAT_ID><ELEMENT_SET_NO>999</ELEMENT_SET_NO><REV_AT_EPOCH>58079</REV_AT_EPOCH><BSTAR>.44163E-4</BSTAR><MEAN_MOTION_DOT>-.96E-6</MEAN_MOTION_DOT><MEAN_MOTION_DDOT>0</MEAN_MOTION_DDOT></tleParameters></data></segment></body></omm>
<omm id="CCSDS_OMM_VERS" version="2.0">
<header><CREATION_DATE/><ORIGINATOR/></header><body><segment><metadata><OBJECT_NAME>GLOBALSTAR M082</OBJECT_NAME><OBJECT_ID>2011-080C</OBJECT_ID><CENTER_NAME>EARTH</CENTER_NAME><REF_FRAME>TEME</REF_FRAME><TIME_SYSTEM>UTC</TIME_SYSTEM><MEAN_ELEMENT_THEORY>SGP4</MEAN_ELEMENT_THEORY></metadata><data><meanElements><EPOCH>2024-07-17T13:46:59.212416</EPOCH><MEAN_MOTION>12.62271154</MEAN_MOTION><ECCENTRICITY>.0001089</ECCENTRICITY><INCLINATION>52.0091</INCLINATION><RA_OF_ASC_NODE>304.0596</RA_OF_ASC_NODE><ARG_OF_PERICENTER>146.3624</ARG_OF_PERICENTER><MEAN_ANOMALY>226.6616</MEAN_ANOMALY></meanElements><tleParameters><EPHEMERIS_TYPE>0</EPHEMERIS_TYPE><CLASSIFICATION_TYPE>U</CLASSIFICATION_TYPE><NORAD_CAT_ID>38042</NORAD_CAT_ID><ELEMENT_SET_NO>999</ELEMENT_SET_NO><REV_AT_EPOCH>58124</REV_AT_EPOCH><BSTAR>.76412E-4</BSTAR><MEAN_MOTION_DOT>-.9E-6</MEAN_MOTION_DOT><MEAN_MOTION_DDOT>0</MEAN_MOTION_DDOT></tleParameters></data></segment></body></omm>
<omm id="CCSDS_OMM_VERS" version="2.0">
<header><CREATION_DATE/><ORIGINATOR/></header><body><segment><metadata><OBJECT_NAME>GLOBALSTAR M092</OBJECT_NAME><OBJECT_ID>2011-080D</OBJECT_ID><CENTER_NAME>EARTH</CENTER_NAME><REF_FRAME>TEME</REF_FRAME><TIME_SYSTEM>UTC</TIME_SYSTEM><MEAN_ELEMENT_THEORY>SGP4</MEAN_ELEMENT_THEORY></metadata><data><meanElements><EPOCH>2024-07-17T21:07:54.285888</EPOCH><MEAN_MOTION>12.62263789</MEAN_MOTION><ECCENTRICITY>.0000974</ECCENTRICITY><INCLINATION>52.0097</INCLINATION><RA_OF_ASC_NODE>33.4835</RA_OF_ASC_NODE><ARG_OF_PERICENTER>81.8932</ARG_OF_PERICENTER><MEAN_ANOMALY>3.4094</MEAN_ANOMALY></meanElements><tleParameters><EPHEMERIS_TYPE>0</EPHEMERIS_TYPE><CLASSIFICATION_TYPE>U</CLASSIFICATION_TYPE><NORAD_CAT_ID>38043</NORAD_CAT_ID><ELEMENT_SET_NO>999</ELEMENT_SET_NO><REV_AT_EPOCH>57973</REV_AT_EPOCH><BSTAR>.25976E-3</BSTAR><MEAN_MOTION_DOT>-.57E-6</MEAN_MOTION_DOT><MEAN_MOTION_DDOT>0</MEAN_MOTION_DDOT></tleParameters></data></segment></body></omm>
<omm id="CCSDS_OMM_VERS" version="2.0">
<header><CREATION_DATE/><ORIGINATOR/></header><body><segment><metadata><OBJECT_NAME>GLOBALSTAR M090</OBJECT_NAME><OBJECT_ID>2011-080E</OBJECT_ID><CENTER_NAME>EARTH</CENTER_NAME><REF_FRAME>TEME</REF_FRAME><TIME_SYSTEM>UTC</TIME_SYSTEM><MEAN_ELEMENT_THEORY>SGP4</MEAN_ELEMENT_THEORY></metadata><data><meanElements><EPOCH>2024-07-17T18:54:14.283648</EPOCH><MEAN_MOTION>12.62264791</MEAN_MOTION><ECCENTRICITY>.0000761</ECCENTRICITY><INCLINATION>51.9896</INCLINATION><RA_OF_ASC_NODE>297.6501</RA_OF_ASC_NODE><ARG_OF_PERICENTER>141.2729</ARG_OF_PERICENTER><MEAN_ANOMALY>1.3400</MEAN_ANOMALY></meanElements><tleParameters><EPHEMERIS_TYPE>0</EPHEMERIS_TYPE><CLASSIFICATION_TYPE>U</CLASSIFICATION_TYPE><NORAD_CAT_ID>38044</NORAD_CAT_ID><ELEMENT_SET_NO>999</ELEMENT_SET_NO><REV_AT_EPOCH>58138</REV_AT_EPOCH><BSTAR>.1046E-3</BSTAR><MEAN_MOTION_DOT>-.85E-6</MEAN_MOTION_DOT><MEAN_MOTION_DDOT>0</MEAN_MOTION_DDOT></tleParameters></data></segment></body></omm>
<omm id="CCSDS_OMM_VERS" version="2.0">
<header><CREATION_DATE/><ORIGINATOR/></header><body><segment><metadata><OBJECT_NAME>GLOBALSTAR M086</OBJECT_NAME><OBJECT_ID>2011-080F</OBJECT_ID><CENTER_NAME>EARTH</CENTER_NAME><REF_FRAME>TEME</REF_FRAME><TIME_SYSTEM>UTC</TIME_SYSTEM><MEAN_ELEMENT_THEORY>SGP4</MEAN_ELEMENT_THEORY></metadata><data><meanElements><EPOCH>2024-07-17T19:33:52.411680</EPOCH><MEAN_MOTION>12.62264482</MEAN_MOTION><ECCENTRICITY>.0000302</ECCENTRICITY><INCLINATION>51.9907</INCLINATION><RA_OF_ASC_NODE>298.0902</RA_OF_ASC_NODE><ARG_OF_PERICENTER>285.2362</ARG_OF_PERICENTER><MEAN_ANOMALY>223.3093</MEAN_ANOMALY></meanElements><tleParameters><EPHEMERIS_TYPE>0</EPHEMERIS_TYPE><CLASSIFICATION_TYPE>U</CLASSIFICATION_TYPE><NORAD_CAT_ID>38045</NORAD_CAT_ID><ELEMENT_SET_NO>999</ELEMENT_SET_NO><REV_AT_EPOCH>58133</REV_AT_EPOCH><BSTAR>.15066E-3</BSTAR><MEAN_MOTION_DOT>-.77E-6</MEAN_MOTION_DOT><MEAN_MOTION_DDOT>0</MEAN_MOTION_DDOT></tleParameters></data></segment></body></omm>
<omm id="CCSDS_OMM_VERS" version="2.0">
<header><CREATION_DATE/><ORIGINATOR/></header><body><segment><metadata><OBJECT_NAME>GLOBALSTAR M097</OBJECT_NAME><OBJECT_ID>2013-005A</OBJECT_ID><CENTER_NAME>EARTH</CENTER_NAME><REF_FRAME>TEME</REF_FRAME><TIME_SYSTEM>UTC</TIME_SYSTEM><MEAN_ELEMENT_THEORY>SGP4</MEAN_ELEMENT_THEORY></metadata><data><meanElements><EPOCH>2024-07-17T11:49:35.057568</EPOCH><MEAN_MOTION>12.62268949</MEAN_MOTION><ECCENTRICITY>.0000223</ECCENTRICITY><INCLINATION>52.0027</INCLINATION><RA_OF_ASC_NODE>213.2811</RA_OF_ASC_NODE><ARG_OF_PERICENTER>223.4069</ARG_OF_PERICENTER><MEAN_ANOMALY>136.6780</MEAN_ANOMALY></meanElements><tleParameters><EPHEMERIS_TYPE>0</EPHEMERIS_TYPE><CLASSIFICATION_TYPE>U</CLASSIFICATION_TYPE><NORAD_CAT_ID>39072</NORAD_CAT_ID><ELEMENT_SET_NO>999</ELEMENT_SET_NO><REV_AT_EPOCH>52862</REV_AT_EPOCH><BSTAR>.19113E-4</BSTAR><MEAN_MOTION_DOT>-.1E-5</MEAN_MOTION_DOT><MEAN_MOTION_DDOT>0</MEAN_MOTION_DDOT></tleParameters></data></segment></body></omm>
<omm id="CCSDS_OMM_VERS" version="2.0">
<header><CREATION_DATE/><ORIGINATOR/></header><body><segment><metadata><OBJECT_NAME>GLOBALSTAR M093</OBJECT_NAME><OBJECT_ID>2013-005B</OBJECT_ID><CENTER_NAME>EARTH</CENTER_NAME><REF_FRAME>TEME</REF_FRAME><TIME_SYSTEM>UTC</TIME_SYSTEM><MEAN_ELEMENT_THEORY>SGP4</MEAN_ELEMENT_THEORY></metadata><data><meanElements><EPOCH>2024-07-18T04:17:07.789632</EPOCH><MEAN_MOTION>12.62276024</MEAN_MOTION><ECCENTRICITY>.000035</ECCENTRICITY><INCLINATION>51.9782</INCLINATION><RA_OF_ASC_NODE>205.0275</RA_OF_ASC_NODE><ARG_OF_PERICENTER>243.8406</ARG_OF_PERICENTER><MEAN_ANOMALY>116.2425</MEAN_ANOMALY></meanElements><tleParameters><EPHEMERIS_TYPE>0</EPHEMERIS_TYPE><CLASSIFICATION_TYPE>U</CLASSIFICATION_TYPE><NORAD_CAT_ID>39073</NORAD_CAT_ID><ELEMENT_SET_NO>999</ELEMENT_SET_NO><REV_AT_EPOCH>52870</REV_AT_EPOCH><BSTAR>.15491E-3</BSTAR><MEAN_MOTION_DOT>-.76E-6</MEAN_MOTION_DOT><MEAN_MOTION_DDOT>0</MEAN_MOTION_DDOT></tleParameters></data></segment></body></omm>

</ndm>
