GLOBALSTAR M084         
1 38040U 11080A   24199.60234736 -.00000089  00000+0  82557-4 0  9999
2 38040  52.0029 347.0727 0000976  85.9917 354.3511 12.62264301580693
GLOBALSTAR M080         
1 38041U 11080B   24200.51468844 -.00000096  00000+0  44163-4 0  9991
2 38041  52.0081 345.7842 0000860  72.4794 316.0115 12.62262886580793
GLOBALSTAR M082         
1 38042U 11080C   24199.57429644 -.00000090  00000+0  76412-4 0  9996
2 38042  52.0091 304.0596 0001089 146.3624 226.6616 12.62271154581247
GLOBALSTAR M092         
1 38043U 11080D   24199.88048942 -.00000057  00000+0  25976-3 0  9990
2 38043  52.0097  33.4835 0000974  81.8932   3.4094 12.62263789579737
GLOBALSTAR M090         
1 38044U 11080E   24199.78766532 -.00000085  00000+0  10460-3 0  9995
2 38044  51.9896 297.6501 0000761 141.2729   1.3400 12.62264791581382
GLOBALSTAR M086         
1 38045U 11080F   24199.81518995 -.00000077  00000+0  15066-3 0  9996
2 38045  51.9907 298.0902 0000302 285.2362 223.3093 12.62264482581335
GLOBALSTAR M097         
1 39072U 13005A   24199.49276687 -.00000100  00000+0  19113-4 0  9994
2 39072  52.0027 213.2811 0000223 223.4069 136.6780 12.62268949528623
GLOBALSTAR M093         
1 39073U 13005B   24200.17856238 -.00000076  00000+0  15491-3 0  9995
2 39073  51.9782 205.0275 0000350 243.8406 116.2425 12.62276024528707
